GEOSCAN-3 (RS92S3)
1 64893U 25155T   26200.83256578  .00010707  00000-0  30340-3 0  9990
2 64893  97.4560 171.1189 0008404  75.1452 285.0722 15.36408779 85864
INNOSAT3 (RS92S0)
1 64894U 25155U   26200.89037641  .00026084  00000-0  53404-3 0  9996
2 64894  97.4504 173.2290 0007972  79.7486 280.4661 15.46049536 86017
KNACKSAT-2
1 67683U 98067XZ  26200.22393463  .00034381  00000-0  37974-3 0  9994
2 67683  51.6273 132.9886 0008148 342.4900  17.5813 15.62683564 25284
