OBJECT_NAME,OBJECT_ID,EPOCH,MEAN_MOTION,ECCENTRICITY,INCLINATION,RA_OF_ASC_NODE,ARG_OF_PERICENTER,MEAN_ANOMALY,EPHEMERIS_TYPE,CLASSIFICATION_TYPE,NORAD_CAT_ID,ELEMENT_SET_NO,REV_AT_EPOCH,BSTAR,MEAN_MOTION_DOT,MEAN_MOTION_DDOT
GEOSCAN 3 (RS92S3),2025-155T,2026-07-19T19:58:53.683392,15.36408779,.0008404,97.4560,171.1189,75.1452,285.0722,0,U,64893,999,8586,.3034E-3,.10707E-3,0
INNOSAT 3 (RS92S0),2025-155U,2026-07-19T21:22:08.521824,15.46049536,.0007972,97.4504,173.2290,79.7486,280.4661,0,U,64894,999,8601,.53404E-3,.26084E-3,0
KNACKSAT-2,1998-067XZ,2026-07-19T05:22:27.952032,15.62683564,.00081481,51.6273,132.9886,342.4900,17.5813,0,U,67683,999,2528,.37973859E-3,.34381E-3,0
